OBJECT_NAME,OBJECT_ID,EPOCH,MEAN_MOTION,ECCENTRICITY,INCLINATION,RA_OF_ASC_NODE,ARG_OF_PERICENTER,MEAN_ANOMALY,EPHEMERIS_TYPE,CLASSIFICATION_TYPE,NORAD_CAT_ID,ELEMENT_SET_NO,REV_AT_EPOCH,BSTAR,MEAN_MOTION_DOT,MEAN_MOTION_DDOT
PERSEUS-M1,2014-033AF,2026-07-07T20:13:05.259072,14.95696203,.0010495,97.9645,133.3147,223.5513,136.4879,0,U,40039,999,65372,.11243E-3,.1191E-4,0
POLYITAN-1,2014-033AJ,2026-07-07T22:20:56.709024,15.34031517,.0008406,98.0942,217.1650,84.8974,275.3226,0,U,40042,999,65677,.34689E-3,.11348E-3,0
TIGRISAT,2014-033AK,2026-07-08T04:52:47.841600,14.85235368,.0049257,97.7856,338.7368,7.3778,352.8151,0,U,40043,999,64874,.15273E-3,.1283E-4,0
AEROCUBE 6A,2014-033AM,2026-07-08T01:29:02.366880,14.98296383,.0037117,97.7238,355.7920,305.4652,54.3108,0,U,40045,999,64974,.23824E-3,.2813E-4,0
AEROCUBE 6B,2014-033AN,2026-07-07T17:02:44.600352,14.99755397,.0037848,97.7215,355.2788,296.6954,63.0396,0,U,40046,999,64983,.24186E-3,.2971E-4,0
CANX-4,2014-034C,2026-07-08T02:12:54.511776,14.81302577,.0011684,98.3096,65.1704,308.1402,51.8755,0,U,40055,999,64762,.90799E-4,.651E-5,0
CANX-5,2014-034D,2026-07-08T02:10:18.058656,14.81319930,.0011678,98.3098,65.2133,308.3694,51.6468,0,U,40056,999,63843,.9091E-4,.653E-5,0
UKUBE-1,2014-037F,2026-07-07T17:26:14.269920,15.13875148,.0003327,98.4246,194.1610,100.8732,259.2871,0,U,40074,999,65166,.26186E-3,.4659E-4,0
BRITE-PL2 (HEWELIUSZ),2014-049B,2026-07-07T20:37:07.214592,14.94670588,.0014882,97.9110,301.0209,46.1590,314.0857,0,U,40119,999,64453,.16367E-3,.1718E-4,0
AEROCUBE 5C,2015-058B,2026-07-08T00:34:05.105280,14.91546424,.0131855,64.7654,197.7638,55.1724,306.1707,0,U,40965,999,36876,.16373E-3,.1762E-4,0
AEROCUBE 7,2015-058C,2026-07-06T16:33:34.100928,14.95859784,.01214512,64.7609,183.7222,54.0290,307.2015,0,U,40966,999,36887,.30749004E-3,.3817E-4,0
FOX-1A (AO-85),2015-058D,2026-07-08T01:52:20.977248,14.91061024,.0131815,64.7733,214.0565,48.5092,312.7244,0,U,40967,999,11668,.14596E-3,.1529E-4,0
SINOD-D 1,2015-058E,2026-07-08T00:03:40.242240,14.96042714,.012047,64.7735,193.7198,44.9214,316.1571,0,U,40968,999,11977,.21994E-3,.2683E-4,0
SNAP-3 ALICE,2015-058G,2026-07-07T21:47:39.738912,15.65672222,.0023619,64.7497,32.0221,354.1383,5.9485,0,U,40970,999,12012,.94382E-3,.98085E-3,0
LMRST-SAT,2015-058H,2026-07-08T00:55:42.468672,14.90676691,.0133369,64.7739,210.5563,50.5319,310.7501,0,U,40971,999,11666,.14332E-3,.1488E-4,0
SNAP-3 EDDIE,2015-058J,2026-07-08T00:13:36.319296,15.66974272,.0024492,64.7407,22.2369,356.9344,3.1650,0,U,40972,999,12228,.86947E-3,.95299E-3,0
PROPCUBE 3,2015-058K,2026-07-08T00:32:59.843040,14.94377515,.0125234,64.7669,187.4306,51.7463,309.4841,0,U,40973,999,11791,.19686E-3,.2298E-4,0
BISONSAT,2015-058L,2026-07-07T20:56:24.464832,15.16787657,.0081376,64.7578,106.7372,38.9546,321.7402,0,U,40974,999,11875,.44684E-3,.9399E-4,0
SNAP-3 JIMI,2015-058M,2026-07-07T07:00:00.180864,15.02533240,.01072532,64.7638,156.1518,47.3702,313.6396,0,U,40975,999,11724,.38731172E-3,.5666E-4,0
PROPCUBE 1 (FLORA),2015-058N,2026-07-08T01:55:03.901728,14.89306718,.0131976,64.7731,230.4798,52.8090,308.4983,0,U,40976,999,11937,.12371E-3,.1205E-4,0
SINOD-D 3,2015-058P,2026-07-08T01:23:24.166176,14.94137485,.012054,64.7707,210.6399,49.8974,311.2629,0,U,40977,999,11787,.17514E-3,.1986E-4,0
RAVAN,2016-067B,2026-07-08T03:22:54.299136,15.56890885,.0001565,97.9852,81.1647,269.3757,90.7317,0,U,41849,999,53095,.55667E-3,.40037E-3,0
CELTEE 1,2016-067C,2026-07-08T01:52:59.339712,15.19893580,.0002106,98.0650,57.0703,118.9363,241.2081,0,U,41850,999,52905,.13049E-3,.2723E-4,0
OPTICUBE 04,2016-067D,2026-07-07T19:47:29.879232,15.09749997,.0016663,98.0684,42.1840,51.4259,308.8458,0,U,41851,999,52828,.89049E-4,.1369E-4,0
AEROCUBE 8D,2016-067E,2026-07-08T02:14:05.161920,15.24701518,.0004901,98.0657,60.8554,74.3063,285.8713,0,U,41852,999,52925,.16339E-3,.3959E-4,0
AEROCUBE 8C,2016-067F,2026-07-07T01:33:16.500384,15.24945674,.00051099,98.0530,56.9510,10.9574,349.1772,0,U,41853,999,52909,.23555499E-3,.5788E-4,0
CORVUS BC2,2017-042X,2026-07-07T09:19:45.674976,15.06428633,.00139468,97.4091,348.9564,47.7457,312.4951,0,U,42846,999,49010,.18928673E-3,.2737E-4,0
CORVUS BC1,2017-042Y,2026-07-07T21:53:54.066048,15.06596608,.0012372,97.4125,350.2875,25.3395,334.8437,0,U,42847,999,49021,.1309E-3,.1882E-4,0
MAKERSAT 0,2017-073D,2026-07-06T15:20:19.728672,15.32782580,.01049762,97.4596,70.3150,202.8118,156.8443,0,U,43016,999,46944,.44083452E-3,.16571E-3,0
SIRION PATHFINDER-2,2018-099B,2026-07-07T22:13:24.189024,15.14739117,.0007741,97.4246,237.4912,218.2423,141.8261,0,U,43759,999,41576,.14747E-3,.2669E-4,0
